NORAD_CAT_ID,OBJECT_NAME,OBJECT_TYPE,EPOCH,MEAN_MOTION,ECCENTRICITY,INCLINATION,RA_OF_ASC_NODE,ARG_OF_PERICENTER,MEAN_ANOMALY,BSTAR,MEAN_MOTION_DOT,MEAN_MOTION_DDOT,TLE_LINE0,TLE_LINE1,TLE_LINE2,SEMIMAJOR_AXIS,PERIOD,APOGEE,PERIGEE,DECAYED
55669.0,STARLINK-5459,PAYLOAD,2023-02-22 16:00:00,15.94839634,0.0037341,70.0,136.7795,163.2442,240.0623,-0.0026325,-0.01087041,0.00036294,0 STARLINK-5459,1 55669U 23021AT  23053.66667824 -.01087041  36294-3 -26325-2 0  9997,2 55669  70.0000 136.7795 0037341 163.2442 240.0623 15.94839634  1301,6666.898,90.291,313.658,263.868,0.0
55669.0,STARLINK-5459,PAYLOAD,2023-02-22 22:00:00,15.94343015,0.0033933,69.9994,136.0501,163.3992,234.5585,-0.0028864,-0.01145241,0.00039757,0 STARLINK-5459,1 55669U 23021AT  23053.91667824 -.01145241  39757-3 -28864-2 0  9999,2 55669  69.9994 136.0501 0033933 163.3992 234.5585 15.94343015  1300,6668.283,90.319,312.775,267.52,0.0
55669.0,STARLINK-5459,PAYLOAD,2023-02-23 08:00:01,15.93439276,0.0029328,69.9998,134.8368,165.3777,102.6402,-0.0029857,-0.01112377,0.0003733,0 STARLINK-5459,1 55669U 23021AT  23054.33334491 -.01112377  37330-3 -29857-2 0  9999,2 55669  69.9998 134.8368 0029328 165.3777 102.6402 15.93439276  1405,6670.804,90.371,312.233,273.105,0.0
55669.0,STARLINK-5459,PAYLOAD,2023-02-23 14:00:01,15.92907661,0.0027106,69.9998,134.1089,166.2209,95.1924,-0.0030814,-0.01109238,0.00036937,0 STARLINK-5459,1 55669U 23021AT  23054.58334491 -.01109238  36937-3 -30814-2 0  9995,2 55669  69.9998 134.1089 0027106 166.2209  95.1924 15.92907661  1301,6672.288,90.401,312.239,276.067,0.0
55669.0,STARLINK-5459,PAYLOAD,2023-02-23 16:00:00,15.92726415,0.0026232,70.0,133.8669,166.9712,212.1364,-0.0030953,-0.01101199,0.00036377,0 STARLINK-5459,1 55669U 23021AT  23054.66667824 -.01101199  36377-3 -30953-2 0  9993,2 55669  70.0000 133.8669 0026232 166.9712 212.1364 15.92726415  1454,6672.794,90.411,312.163,277.155,0.0
55669.0,STARLINK-5459,PAYLOAD,2023-02-23 22:00:00,15.92234374,0.0023266,69.9994,133.1398,168.2797,203.5702,-0.0033927,-0.01167352,0.00040314,0 STARLINK-5459,1 55669U 23021AT  23054.91667824 -.01167352  40314-3 -33927-2 0  9994,2 55669  69.9994 133.1398 0023266 168.2797 203.5702 15.92234374  1309,6674.169,90.439,311.562,280.506,0.0
55669.0,STARLINK-5459,PAYLOAD,2023-02-24 02:00:01,15.91833006,0.0022143,69.9999,132.6566,169.4841,77.2946,-0.003219,-0.01082721,0.00034943,0 STARLINK-5459,1 55669U 23021AT  23055.08334491 -.01082721  34943-3 -32190-2 0  9992,2 55669  69.9999 132.6566 0022143 169.4841  77.2946 15.91833006  1527,6675.291,90.462,311.937,282.374,0.0
55669.0,STARLINK-5459,PAYLOAD,2023-02-24 08:00:01,15.91309212,0.0019297,70.0,131.9304,172.7478,65.9926,-0.0033581,-0.01093133,0.00035382,0 STARLINK-5459,1 55669U 23021AT  23055.33334491 -.01093133  35382-3 -33581-2 0  9992,2 55669  70.0000 131.9304 0019297 172.7478  65.9926 15.91309212  1567,6676.755,90.492,311.504,285.736,0.0
55669.0,STARLINK-5459,PAYLOAD,2023-02-24 12:00:00,15.90940678,0.0017842,70.0,131.4476,174.6033,298.5209,-0.003337,-0.01063441,0.00033504,0 STARLINK-5459,1 55669U 23021AT  23055.50001157 -.01063441  33504-3 -33370-2 0  9990,2 55669  70.0000 131.4476 0017842 174.6033 298.5209 15.90940678  1300,6677.786,90.512,311.566,287.737,0.0
55669.0,STARLINK-5459,PAYLOAD,2023-02-24 18:00:00,15.9041499,0.0015651,69.9997,130.7225,178.5622,285.7307,-0.0034662,-0.01071657,0.00033809,0 STARLINK-5459,1 55669U 23021AT  23055.75001157 -.01071657  33809-3 -34662-2 0  9998,2 55669  69.9997 130.7225 0015651 178.5622 285.7307 15.90414990  1635,6679.258,90.542,311.576,290.669,0.0
55669.0,STARLINK-5459,PAYLOAD,2023-02-24 22:00:00,15.90106324,0.0013862,69.9996,130.239,182.7999,155.3241,-0.003812,-0.01156722,0.00038816,0 STARLINK-5459,1 55669U 23021AT  23055.91667824 -.01156722  38816-3 -38120-2 0  9998,2 55669  69.9996 130.2390 0013862 182.7999 155.3241 15.90106324  1300,6680.122,90.56,311.247,292.727,0.0
55669.0,STARLINK-5459,PAYLOAD,2023-02-25 02:00:01,15.89708079,0.0012788,70.0002,129.7566,186.5651,25.2133,-0.0036051,-0.01071439,0.00033564,0 STARLINK-5459,1 55669U 23021AT  23056.08334491 -.01071439  33564-3 -36051-2 0  9995,2 55669  70.0002 129.7566 0012788 186.5651  25.2133 15.89708079  1681,6681.238,90.583,311.647,294.559,0.0
55669.0,STARLINK-5459,PAYLOAD,2023-02-25 08:00:01,15.89179616,0.0010706,70.0001,129.0334,196.1658,5.6699,-0.0037216,-0.0107471,0.00033581,0 STARLINK-5459,1 55669U 23021AT  23056.33334491 -.01074710  33581-3 -37216-2 0  9991,2 55669  70.0001 129.0334 0010706 196.1658   5.6699 15.89179616  1721,6682.719,90.613,311.738,297.429,0.0
55669.0,STARLINK-5459,PAYLOAD,2023-02-25 14:00:01,15.88659452,0.0009517,69.9996,128.3105,206.4517,344.9597,-0.0038754,-0.01089171,0.00034249,0 STARLINK-5459,1 55669U 23021AT  23056.58334491 -.01089171  34249-3 -38754-2 0  9995,2 55669  69.9996 128.3105 0009517 206.4517 344.9597 15.88659452  1766,6684.177,90.642,312.404,299.681,0.0
55669.0,STARLINK-5459,PAYLOAD,2023-02-25 22:00:00,15.87989295,0.0008331,69.9995,127.347,226.9827,69.7815,-0.0042758,-0.01040684,0.0,0 STARLINK-5459,1 55669U 23021AT  23056.91667824 -.01040684  00000-0 -42758-2 0  9991,2 55669  69.9995 127.3470 0008331 226.9827  69.7815 15.87989295  1814,6686.058,90.681,313.493,302.353,0.0
55669.0,STARLINK-5459,PAYLOAD,2023-02-26 06:00:00,15.87276554,0.0008707,69.9993,126.3852,248.0733,153.212,-0.0043779,-0.01030037,0.0,0 STARLINK-5459,1 55669U 23021AT  23057.25001157 -.01030037  00000-0 -43779-2 0  9995,2 55669  69.9993 126.3852 0008707 248.0733 153.2120 15.87276554  1874,6688.059,90.721,315.747,304.101,0.0
55669.0,STARLINK-5459,PAYLOAD,2023-02-26 14:00:01,15.86526751,0.0009175,69.9998,125.4249,262.5983,242.3768,-0.0042314,-0.00966753,0.0,0 STARLINK-5459,1 55669U 23021AT  23057.58334491 -.00966753  00000-0 -42314-2 0  9997,2 55669  69.9998 125.4249 0009175 262.5983 242.3768 15.86526751  1309,6690.166,90.764,318.169,305.893,0.0
55669.0,STARLINK-5459,PAYLOAD,2023-02-26 22:00:00,15.8585207,0.0007719,69.9992,124.4641,269.6948,338.0896,-0.0045952,-0.01009195,0.0,0 STARLINK-5459,1 55669U 23021AT  23057.91667824 -.01009195  00000-0 -45952-2 0  9993,2 55669  69.9992 124.4641 0007719 269.6948 338.0896 15.85852070  1972,6692.064,90.803,319.094,308.763,0.0
55669.0,STARLINK-5459,PAYLOAD,2023-02-27 14:00:01,15.84431318,0.0007865,69.9997,122.5471,271.9136,178.9822,-0.004894,-0.01003998,0.0,0 STARLINK-5459,1 55669U 23021AT  23058.58334491 -.01003998  00000-0 -48940-2 0  9993,2 55669  69.9997 122.5471 0007865 271.9136 178.9822 15.84431318  1308,6696.063,90.884,323.195,312.662,0.0
55669.0,STARLINK-5459,PAYLOAD,2023-02-27 22:00:01,15.83688853,0.0003684,70.0004,121.5904,278.9987,272.2594,-0.0047837,-0.00949688,0.0,0 STARLINK-5459,1 55669U 23021AT  23058.91668981 -.00949688  00000-0 -47837-2 0  9992,2 55669  70.0004 121.5904 0003684 278.9987 272.2594 15.83688853  2139,6698.156,90.927,322.489,317.554,0.0
55669.0,STARLINK-5459,PAYLOAD,2023-02-28 14:00:01,15.82293804,0.0003691,70.0004,119.68,268.0587,121.1456,-0.0052505,-0.00973073,0.0,0 STARLINK-5459,1 55669U 23021AT  23059.58334491 -.00973073  00000-0 -52505-2 0  9995,2 55669  70.0004 119.6800 0003691 268.0587 121.1456 15.82293804  1300,6702.093,91.007,326.431,321.484,0.0
55669.0,STARLINK-5459,PAYLOAD,2023-02-28 16:00:00,15.82117125,0.0003524,69.9999,119.4413,268.1747,235.5445,-0.0052989,-0.00973743,0.0,0 STARLINK-5459,1 55669U 23021AT  23059.66667824 -.00973743  00000-0 -52989-2 0  9993,2 55669  69.9999 119.4413 0003524 268.1747 235.5445 15.82117125  2256,6702.592,91.017,326.819,322.095,0.0
55669.0,STARLINK-5459,PAYLOAD,2023-02-28 22:00:00,15.81607997,0.0003712,70.0001,118.7258,281.2419,205.6932,-0.0056076,-0.01002855,0.0,0 STARLINK-5459,1 55669U 23021AT  23059.91667824 -.01002855  00000-0 -56076-2 0  9990,2 55669  70.0001 118.7258 0003712 281.2419 205.6932 15.81607997  1307,6704.03,91.047,328.383,323.406,0.0
55669.0,STARLINK-5459,PAYLOAD,2023-03-01 14:00:01,15.80193778,0.0003552,69.9997,116.8209,272.6894,47.1817,-0.0059692,-0.00999994,0.0,0 STARLINK-5459,1 55669U 23021AT  23060.58334491 -.00999994  00000-0 -59692-2 0  9991,2 55669  69.9997 116.8209 0003552 272.6894  47.1817 15.80193778  2393,6708.029,91.128,332.277,327.511,0.0
55669.0,STARLINK-5459,PAYLOAD,2023-03-01 22:00:00,15.79479849,0.0003702,69.9996,115.8692,279.795,135.2769,-0.0061016,-0.00990462,0.0,0 STARLINK-5459,1 55669U 23021AT  23060.91667824 -.00990462  00000-0 -61016-2 0  9991,2 55669  69.9996 115.8692 0003702 279.7950 135.2769 15.79479849  1304,6710.05,91.169,334.399,329.431,0.0
55669.0,STARLINK-5459,PAYLOAD,2023-03-02 20:00:01,15.77527345,0.0003448,69.9998,113.2595,270.4774,312.0206,-0.0065761,-0.00978426,0.0,0 STARLINK-5459,1 55669U 23021AT  23061.83334491 -.00978426  00000-0 -65761-2 0  9991,2 55669  69.9998 113.2595 0003448 270.4774 312.0206 15.77527345  1303,6715.586,91.282,339.766,335.135,0.0
55669.0,STARLINK-5459,PAYLOAD,2023-03-03 12:00:00,15.76111468,0.0003689,70.0002,111.3661,281.482,124.2066,-0.0069598,-0.00973005,0.0,0 STARLINK-5459,1 55669U 23021AT  23062.50001157 -.00973005  00000-0 -69598-2 0  9996,2 55669  70.0002 111.3661 0003689 281.4820 124.2066 15.76111468  2702,6719.607,91.364,343.951,338.993,0.0
55669.0,STARLINK-5459,PAYLOAD,2023-03-03 14:00:01,15.75945641,0.00035,69.9996,111.1294,274.534,243.8097,-0.007121,-0.0098653,0.0,0 STARLINK-5459,1 55669U 23021AT  23062.58334491 -.00986530  00000-0 -71210-2 0  9995,2 55669  69.9996 111.1294 0003500 274.5340 243.8097 15.75945641  1307,6720.079,91.374,344.296,339.592,0.0
55669.0,STARLINK-5459,PAYLOAD,2023-03-03 22:00:00,15.75258474,0.0003557,69.9999,110.1839,280.8418,327.6056,-0.0075667,-0.01030733,0.0,0 STARLINK-5459,1 55669U 23021AT  23062.91667824 -.01030733  00000-0 -75667-2 0  9997,2 55669  69.9999 110.1839 0003557 280.8418 327.6056 15.75258474  1309,6722.033,91.414,346.289,341.507,0.0
